name,source,collection_date,satellite_number,classification,launch_year,launch_number,launch_piece,epoch_year,epoch_day,inclination_deg,right_ascension_deg,eccentricity,argument_of_perigee_deg,mean_anomaly_deg,mean_motion,orbital_period_minutes,approximate_altitude_km,mean_motion_derivative,mean_motion_second_derivative,drag_term,element_set_number,revolution_number,line1,line2,category
STARLINK-4179,celestrak_active,2025-07-29T17:08:40.677388,53275,U,2022,86,AK,2025,209.99942424,53.2174,108.3068,0.0001334,107.1893,252.9245,15.08842238,95.43741311939598,0,-8.67e-06,0.0,-0.00036389,999,16742,1 53275U 22086AK  25209.99942424 -.00000867  00000+0 -36389-4 0  9996,2 53275  53.2174 108.3068 0001334 107.1893 252.9245 15.08842238167422,important
STARLINK-4174,celestrak_active,2025-07-29T17:08:40.677394,53276,U,2022,86,AL,2025,210.40422483,53.2166,106.4914,0.0001223,87.9623,272.1509,15.08839287,95.43759977665533,0,-4.75e-06,0.0,-0.00011756,999,16748,1 53276U 22086AL  25210.40422483 -.00000475  00000+0 -11756-4 0  9999,2 53276  53.2166 106.4914 0001223  87.9623 272.1509 15.08839287167489,important
STARLINK-4178,celestrak_active,2025-07-29T17:08:40.677399,53277,U,2022,86,AM,2025,209.9920639,53.2175,108.3697,0.0001379,86.0278,274.0872,15.08840744,95.43750761810023,0,9.47e-06,0.0,0.00077578,999,16742,1 53277U 22086AM  25209.99206390  .00000947  00000+0  77578-4 0  9995,2 53277  53.2175 108.3697 0001379  86.0278 274.0872 15.08840744167425,important
STARLINK-4180,celestrak_active,2025-07-29T17:08:40.677405,53278,U,2022,86,AN,2025,209.99574823,53.2157,108.3207,0.0001943,96.2169,263.9045,15.08835833,95.43781825070162,0,-4.36e-06,0.0,-9.2869e-05,999,16742,1 53278U 22086AN  25209.99574823 -.00000436  00000+0 -92869-5 0  9991,2 53278  53.2157 108.3207 0001943  96.2169 263.9045 15.08835833167424,important
STARLINK-4169,celestrak_active,2025-07-29T17:08:40.677410,53280,U,2022,86,AQ,2025,209.98328571,53.2179,63.0549,0.0001384,86.2048,273.9102,15.08842044,95.43742539030148,0,4.84e-06,0.0,0.00048503,999,16806,1 53280U 22086AQ  25209.98328571  .00000484  00000+0  48503-4 0  9996,2 53280  53.2179  63.0549 0001384  86.2048 273.9102 15.08842044168069,important
STARLINK-4164,celestrak_active,2025-07-29T17:08:40.677415,53282,U,2022,86,AS,2025,210.45206618,53.2176,106.2714,0.0001379,91.4236,268.6914,15.08838685,95.43763785457291,0,2.19e-06,0.0,0.00031858,999,16749,1 53282U 22086AS  25210.45206618  .00000219  00000+0  31858-4 0  9990,2 53282  53.2176 106.2714 0001379  91.4236 268.6914 15.08838685167497,important
STARLINK-4175,celestrak_active,2025-07-29T17:08:40.677421,53283,U,2022,86,AT,2025,210.04359126,53.2168,108.1069,0.0001637,92.4341,267.6839,15.08837943,95.43768478786194,0,-4.81e-06,0.0,-0.00012130000000000001,999,16743,1 53283U 22086AT  25210.04359126 -.00000481  00000+0 -12130-4 0  9994,2 53283  53.2168 108.1069 0001637  92.4341 267.6839 15.08837943167433,important
STARLINK-4173,celestrak_active,2025-07-29T17:08:40.677426,53285,U,2022,86,AV,2025,210.42998824,53.2166,106.3729,0.0001577,80.7593,279.3577,15.08836435,95.43778017264012,0,3.023e-05,0.0,0.0020796,999,16748,1 53285U 22086AV  25210.42998824  .00003023  00000+0  20796-3 0  9991,2 53285  53.2166 106.3729 0001577  80.7593 279.3577 15.08836435167487,important
STARLINK-4165,celestrak_active,2025-07-29T17:08:40.677433,53286,U,2022,86,AW,2025,210.40786603,53.2171,106.1677,0.000143,133.6118,226.4993,15.08852307,95.43677623843139,0,-4.052e-05,0.0,-0.0023657,999,16748,1 53286U 22086AW  25210.40786603 -.00004052  00000+0 -23657-3 0  9994,2 53286  53.2171 106.1677 0001430 133.6118 226.4993 15.08852307167484,important
STARLINK-4107,celestrak_active,2025-07-29T17:08:40.677439,53287,U,2022,86,AX,2025,210.09142819,53.2187,107.8963,0.0001486,95.3639,264.7522,15.08836524,95.43777454316184,0,5.6e-06,0.0,0.00053279,999,16743,1 53287U 22086AX  25210.09142819  .00000560  00000+0  53279-4 0  9997,2 53287  53.2187 107.8963 0001486  95.3639 264.7522 15.08836524167432,important
STARLINK-4162,celestrak_active,2025-07-29T17:08:40.677445,53288,U,2022,86,AY,2025,210.1024674,53.2175,107.8433,0.0001356,84.7203,275.3944,15.08841322,95.43747105833837,0,2.76e-06,0.0,0.00035412000000000003,999,16743,1 53288U 22086AY  25210.10246740  .00000276  00000+0  35412-4 0  9991,2 53288  53.2175 107.8433 0001356  84.7203 275.3944 15.08841322167435,important
STARLINK-4176,celestrak_active,2025-07-29T17:08:40.677450,53289,U,2022,86,AZ,2025,210.00171538,53.2173,103.4397,0.0001467,95.0167,265.0992,15.0886586,95.435919002104,0,3.444e-05,0.0,0.0023419,999,16748,1 53289U 22086AZ  25210.00171538  .00003444  00000+0  23419-3 0  9996,2 53289  53.2173 103.4397 0001467  95.0167 265.0992 15.08865860167489,important
STARLINK-4149,celestrak_active,2025-07-29T17:08:40.677455,53290,U,2022,86,BA,2025,210.42630283,53.2179,106.3961,0.0001438,88.2181,271.8976,15.08846677,95.43713234422957,0,1.462e-05,0.0,0.0010991,999,16748,1 53290U 22086BA  25210.42630283  .00001462  00000+0  10991-3 0  9990,2 53290  53.2179 106.3961 0001438  88.2181 271.8976 15.08846677167486,important
STARLINK-4166,celestrak_active,2025-07-29T17:08:40.677464,53291,U,2022,86,BB,2025,210.43226799,53.217,101.1519,0.0001416,82.6425,277.4728,15.08845332,95.43721741785527,0,8.68e-06,0.0,0.0007260500000000001,999,16755,1 53291U 22086BB  25210.43226799  .00000868  00000+0  72605-4 0  9995,2 53291  53.2170 101.1519 0001416  82.6425 277.4728 15.08845332167557,important
STARLINK-4159,celestrak_active,2025-07-29T17:08:40.677470,53292,U,2022,86,BC,2025,210.43736503,53.2172,106.523,0.0001375,86.9809,273.134,15.08843759,95.43731691307609,0,8.12e-06,0.0,0.00069071,999,16748,1 53292U 22086BC  25210.43736503  .00000812  00000+0  69071-4 0  9997,2 53292  53.2172 106.5230 0001375  86.9809 273.1340 15.08843759167482,important
STARLINK-4148,celestrak_active,2025-07-29T17:08:40.677475,53293,U,2022,86,BD,2025,209.99298585,53.2176,98.3264,0.0001373,85.0902,275.0247,15.08838728,95.43763513472065,0,-4.07e-06,0.0,-7.4979e-05,999,16755,1 53293U 22086BD  25209.99298585 -.00000407  00000+0 -74979-5 0  9996,2 53293  53.2176  98.3264 0001373  85.0902 275.0247 15.08838728167559,important
STARLINK-4146,celestrak_active,2025-07-29T17:08:40.677481,53294,U,2022,86,BE,2025,210.40880717,53.2174,96.3052,0.0001342,77.7223,282.3919,15.08842474,95.43739819190694,0,-5.38e-06,0.0,-0.00015739,999,16766,1 53294U 22086BE  25210.40880717 -.00000538  00000+0 -15739-4 0  9992,2 53294  53.2174  96.3052 0001342  77.7223 282.3919 15.08842474167663,important
STARLINK-4522,celestrak_active,2025-07-29T17:08:40.677529,53388,U,2022,97,A,2025,209.83198918,53.2173,49.0583,0.0002017,101.0426,259.0793,15.08835156,95.43786107274398,0,-5.65e-06,0.0,-0.00017368,999,16505,1 53388U 22097A   25209.83198918 -.00000565  00000+0 -17368-4 0  9998,2 53388  53.2173  49.0583 0002017 101.0426 259.0793 15.08835156165057,important
STARLINK-4523,celestrak_active,2025-07-29T17:08:40.677535,53389,U,2022,97,B,2025,210.28833447,53.2185,47.0114,0.0001425,83.8307,276.2848,15.08811651,95.43934785005182,0,-3.402e-05,0.0,-0.0019588,999,16494,1 53389U 22097B   25210.28833447 -.00003402  00000+0 -19588-3 0  9991,2 53389  53.2185  47.0114 0001425  83.8307 276.2848 15.08811651164949,important
STARLINK-4517,celestrak_active,2025-07-29T17:08:40.677540,53390,U,2022,97,C,2025,210.42446469,53.2178,46.3994,0.0001331,93.9145,266.2,15.08837421,95.43771780564819,0,-2.96e-06,0.0,-5.2096999999999994e-06,999,16511,1 53390U 22097C   25210.42446469 -.00000296  00000+0 -52097-6 0  9996,2 53390  53.2178  46.3994 0001331  93.9145 266.2000 15.08837421165111,important
STARLINK-4521,celestrak_active,2025-07-29T17:08:40.677546,53391,U,2022,97,D,2025,210.28464407,53.2171,47.0256,0.0001276,90.3083,269.8056,15.08845044,95.43723563438367,0,5.458e-05,0.0,0.0036071000000000002,999,16494,1 53391U 22097D   25210.28464407  .00005458  00000+0  36071-3 0  9997,2 53391  53.2171  47.0256 0001276  90.3083 269.8056 15.08845044164944,important
STARLINK-4535,celestrak_active,2025-07-29T17:08:40.677551,53392,U,2022,97,E,2025,210.27726555,53.2172,47.0575,0.0001299,89.8643,270.2498,15.08841128,95.43748332925877,0,-3.76e-06,0.0,-5.5263e-05,999,16494,1 53392U 22097E   25210.27726555 -.00000376  00000+0 -55263-5 0  9994,2 53392  53.2172  47.0575 0001299  89.8643 270.2498 15.08841128164945,important
STARLINK-4530,celestrak_active,2025-07-29T17:08:40.677557,53393,U,2022,97,F,2025,210.28094382,53.2181,47.0421,0.0001258,87.13,272.9836,15.08843275,95.43734752703192,0,2.74e-06,0.0,0.00035299,999,16494,1 53393U 22097F   25210.28094382  .00000274  00000+0  35299-4 0  9993,2 53393  53.2181  47.0421 0001258  87.1300 272.9836 15.08843275164942,important
STARLINK-4544,celestrak_active,2025-07-29T17:08:40.677562,53394,U,2022,97,G,2025,210.22662355,53.2182,36.8957,0.0001433,88.2381,271.8776,15.08836033,95.43780560017949,0,-1.2e-05,0.0,-0.00057338,999,16508,1 53394U 22097G   25210.22662355 -.00001200  00000+0 -57338-4 0  9999,2 53394  53.2182  36.8957 0001433  88.2381 271.8776 15.08836033165081,important
STARLINK-4534,celestrak_active,2025-07-29T17:08:40.677568,53395,U,2022,97,H,2025,209.94334183,53.2182,48.5694,0.0001234,88.3467,271.7666,15.08843131,95.43735663532009,0,3.03e-06,0.0,0.00037139000000000003,999,16473,1 53395U 22097H   25209.94334183  .00000303  00000+0  37139-4 0  9990,2 53395  53.2182  48.5694 0001234  88.3467 271.7666 15.08843131164730,important
STARLINK-4524,celestrak_active,2025-07-29T17:08:40.677573,53396,U,2022,97,J,2025,210.25887138,53.2185,47.1384,0.0001418,85.9121,274.2033,15.08839158,95.43760793620655,0,4.52e-06,0.0,0.0004647,999,16478,1 53396U 22097J   25210.25887138  .00000452  00000+0  46470-4 0  9993,2 53396  53.2185  47.1384 0001418  85.9121 274.2033 15.08839158164784,important
